{"type": "FeatureCollection", "features": [ {"type": "Feature", "properties": {"norad_id": 30690, "name": "FENGYUN 1C DEB", "group": "fengyun-1c-debris", "lat": -63.11999750504834, "lon": -51.659142548790754, "alt_km": 913.2747005210476, "timestamp": "2025-12-25T07:41:10.001188+00:00", "meta": {"OBJECT_NAME": "FENGYUN 1C DEB", "OBJECT_ID": "1999-025AQY", "EPOCH": "2025-12-24T18:32:55.320000", "MEAN_MOTION": 14.02378101, "ECCENTRICITY": 0.01049715, "INCLINATION": 99.1596, "RA_OF_ASC_NODE": 289.2307, "ARG_OF_PERICENTER": 43.1703, "MEAN_ANOMALY": 11.3864, "EPHEMERIS_TYPE": 0, "CLASSIFICATION_TYPE": "U", "NORAD_CAT_ID": 30690, "ELEMENT_SET_NO": 999, "REV_AT_EPOCH": 95876, "BSTAR": 0.0016691571, "MEAN_MOTION_DOT": 2.645e-05, "MEAN_MOTION_DDOT": 0}, "tle": {"line1": "1 30690U 99025AQY 25358.77286250  .00002645  00000+0  16692-2 0  9995", "line2": "2 30690  99.1596 289.2307 0104971  43.1703  11.3864 14.02378101958765"}}, "geometry": {"type": "Point", "coordinates": [-51.659142548790754, -63.11999750504834]}}, {"type": "Feature", "properties": {"norad_id": 30691, "name": "FENGYUN 1C DEB", "group": "fengyun-1c-debris", "lat": 66.25249119078454, "lon": -10.506812272680401, "alt_km": 989.8022702229609, "timestamp": "2025-12-25T07:41:10.001198+00:00", "meta": {"OBJECT_NAME": "FENGYUN 1C DEB", "OBJECT_ID": "1999-025AQZ", "EPOCH": "2025-12-24T00:34:41.889216", "MEAN_MOTION": 13.89463731, "ECCENTRICITY": 0.01395984, "INCLINATION": 98.743, "RA_OF_ASC_NODE": 8.749, "ARG_OF_PERICENTER": 202.1798, "MEAN_ANOMALY": 226.9783, "EPHEMERIS_TYPE": 0, "CLASSIFICATION_TYPE": "U", "NORAD_CAT_ID": 30691, "ELEMENT_SET_NO": 999, "REV_AT_EPOCH": 95273, "BSTAR": 0.00093458335, "MEAN_MOTION_DOT": 1.194e-05, "MEAN_MOTION_DDOT": 0}, "tle": {"line1": "1 30691U 99025AQZ 25358.02409594  .00001194  00000+0  93458-3 0  9996", "line2": "2 30691  98.7430   8.7490 0139598 202.1798 226.9783 13.89463731952732"}}, "geometry": {"type": "Point", "coordinates": [-10.506812272680401, 66.25249119078454]}}, {"type": "Feature", "properties": {"norad_id": 30693, "name": "FENGYUN 1C DEB", "group": "fengyun-1c-debris", "lat": -2.6242553365339063, "lon": 163.67814793260996, "alt_km": 837.6742441951965, "timestamp": "2025-12-25T07:41:10.001208+00:00", "meta": {"OBJECT_NAME": "FENGYUN 1C DEB", "OBJECT_ID": "1999-025ARB", "EPOCH": "2025-12-24T10:26:17.781792", "MEAN_MOTION": 14.13299212, "ECCENTRICITY": 0.00297994, "INCLINATION": 98.6874, "RA_OF_ASC_NODE": 343.2202, "ARG_OF_PERICENTER": 134.3209, "MEAN_ANOMALY": 226.0414, "EPHEMERIS_TYPE": 0, "CLASSIFICATION_TYPE": "U", "NORAD_CAT_ID": 30693, "ELEMENT_SET_NO": 999, "REV_AT_EPOCH": 97100, "BSTAR": 0.0002651523, "MEAN_MOTION_DOT": 4.57e-06, "MEAN_MOTION_DDOT": 0}, "tle": {"line1": "1 30693U 99025ARB 25358.43492803  .00000457  00000+0  26515-3 0  9999", "line2": "2 30693  98.6874 343.2202 0029799 134.3209 226.0414 14.13299212971009"}}, "geometry": {"type": "Point", "coordinates": [163.67814793260996, -2.6242553365339063]}}, {"type": "Feature", "properties": {"norad_id": 30694, "name": "FENGYUN 1C DEB", "group": "fengyun-1c-debris", "lat": 27.202337611416564, "lon": 151.95129803953316, "alt_km": 624.591932702051, "timestamp": "2025-12-25T07:41:10.001219+00:00", "meta": {"OBJECT_NAME": "FENGYUN 1C DEB", "OBJECT_ID": "1999-025ARC", "EPOCH": "2025-12-24T21:17:57.433920", "MEAN_MOTION": 14.86794299, "ECCENTRICITY": 0.0129388, "INCLINATION": 99.0489, "RA_OF_ASC_NODE": 326.7603, "ARG_OF_PERICENTER": 255.7449, "MEAN_ANOMALY": 102.9364, "EPHEMERIS_TYPE": 0, "CLASSIFICATION_TYPE": "U", "NORAD_CAT_ID": 30694, "ELEMENT_SET_NO": 999, "REV_AT_EPOCH": 276, "BSTAR": 0.0011665262, "MEAN_MOTION_DOT": 0.00012052, "MEAN_MOTION_DDOT": 0}, "tle": {"line1": "1 30694U 99025ARC 25358.88747030  .00012052  00000+0  11665-2 0  9997", "line2": "2 30694  99.0489 326.7603 0129388 255.7449 102.9364 14.86794299  2766"}}, "geometry": {"type": "Point", "coordinates": [151.95129803953316, 27.202337611416564]}}, {"type": "Feature", "properties": {"norad_id": 30696, "name": "FENGYUN 1C DEB", "group": "fengyun-1c-debris", "lat": -0.5770843922983653, "lon": 48.2621733698077, "alt_km": 743.4058781498888, "timestamp": "2025-12-25T07:41:10.001229+00:00", "meta": {"OBJECT_NAME": "FENGYUN 1C DEB", "OBJECT_ID": "1999-025ARE", "EPOCH": "2025-12-23T21:36:29.069280", "MEAN_MOTION": 14.44821784, "ECCENTRICITY": 0.0089555, "INCLINATION": 98.3874, "RA_OF_ASC_NODE": 46.7754, "ARG_OF_PERICENTER": 92.3578, "MEAN_ANOMALY": 86.9777, "EPHEMERIS_TYPE": 0, "CLASSIFICATION_TYPE": "U", "NORAD_CAT_ID": 30696, "ELEMENT_SET_NO": 999, "REV_AT_EPOCH": 98465, "BSTAR": 0.0008185, "MEAN_MOTION_DOT": 2.944e-05, "MEAN_MOTION_DDOT": 0}, "tle": {"line1": "1 30696U 99025ARE 25357.90033645  .00002944  00000+0  81850-3 0  9994", "line2": "2 30696  98.3874  46.7754 0089555  92.3578  86.9777 14.44821784984653"}}, "geometry": {"type": "Point", "coordinates": [48.2621733698077, -0.5770843922983653]}}, {"type": "Feature", "properties": {"norad_id": 30697, "name": "FENGYUN 1C DEB", "group": "fengyun-1c-debris", "lat": 21.844291635207117, "lon": -120.28819325675921, "alt_km": 783.7173087157153, "timestamp": "2025-12-25T07:41:10.001239+00:00", "meta": {"OBJECT_NAME": "FENGYUN 1C DEB", "OBJECT_ID": "1999-025ARF", "EPOCH": "2025-12-22T02:39:29.097216", "MEAN_MOTION": 14.13570232, "ECCENTRICITY": 0.00880923, "INCLINATION": 98.9054, "RA_OF_ASC_NODE": 52.913, "ARG_OF_PERICENTER": 159.2131, "MEAN_ANOMALY": 234.7348, "EPHEMERIS_TYPE": 0, "CLASSIFICATION_TYPE": "U", "NORAD_CAT_ID": 30697, "ELEMENT_SET_NO": 999, "REV_AT_EPOCH": 96393, "BSTAR": 0.001445615, "MEAN_MOTION_DOT": 2.784e-05, "MEAN_MOTION_DDOT": 0}, "tle": {"line1": "1 30697U 99025ARF 25356.11075344  .00002784  00000+0  14456-2 0  9998", "line2": "2 30697  98.9054  52.9130 0088092 159.2131 234.7348 14.13570232963930"}}, "geometry": {"type": "Point", "coordinates": [-120.28819325675921, 21.844291635207117]}}, {"type": "Feature", "properties": {"norad_id": 30699, "name": "FENGYUN 1C DEB", "group": "fengyun-1c-debris", "lat": 1.0987888078008463, "lon": 119.86379805938577, "alt_km": 740.4039047450669, "timestamp": "2025-12-25T07:41:10.001249+00:00", "meta": {"OBJECT_NAME": "FENGYUN 1C DEB", "OBJECT_ID": "1999-025ARH", "EPOCH": "2025-12-24T06:47:23.188992", "MEAN_MOTION": 14.47106457, "ECCENTRICITY": 0.00049069, "INCLINATION": 99.3124, "RA_OF_ASC_NODE": 118.9041, "ARG_OF_PERICENTER": 227.0471, "MEAN_ANOMALY": 133.0307, "EPHEMERIS_TYPE": 0, "CLASSIFICATION_TYPE": "U", "NORAD_CAT_ID": 30699, "ELEMENT_SET_NO": 999, "REV_AT_EPOCH": 97780, "BSTAR": 0.0024280884, "MEAN_MOTION_DOT": 8.811e-05, "MEAN_MOTION_DDOT": 0}, "tle": {"line1": "1 30699U 99025ARH 25358.28290728  .00008811  00000+0  24281-2 0  9999", "line2": "2 30699  99.3124 118.9041 0004906 227.0471 133.0307 14.47106457977800"}}, "geometry": {"type": "Point", "coordinates": [119.86379805938577, 1.0987888078008463]}}, {"type": "Feature", "properties": {"norad_id": 30700, "name": "FENGYUN 1C DEB", "group": "fengyun-1c-debris", "lat": 56.33638034419885, "lon": -139.685907754454, "alt_km": 746.508863624279, "timestamp": "2025-12-25T07:41:10.001259+00:00", "meta": {"OBJECT_NAME": "FENGYUN 1C DEB", "OBJECT_ID": "1999-025ARJ", "EPOCH": "2025-12-24T20:59:54.187872", "MEAN_MOTION": 14.23804403, "ECCENTRICITY": 0.00874072, "INCLINATION": 98.5404, "RA_OF_ASC_NODE": 26.8418, "ARG_OF_PERICENTER": 108.3162, "MEAN_ANOMALY": 252.755, "EPHEMERIS_TYPE": 0, "CLASSIFICATION_TYPE": "U", "NORAD_CAT_ID": 30700, "ELEMENT_SET_NO": 999, "REV_AT_EPOCH": 97742, "BSTAR": 0.00017680199, "MEAN_MOTION_DOT": 3.79e-06, "MEAN_MOTION_DDOT": 0}, "tle": {"line1": "1 30700U 99025ARJ 25358.87493273  .00000379  00000+0  17680-3 0  9994", "line2": "2 30700  98.5404  26.8418 0087407 108.3162 252.7550 14.23804403977422"}}, "geometry": {"type": "Point", "coordinates": [-139.685907754454, 56.33638034419885]}}, {"type": "Feature", "properties": {"norad_id": 30701, "name": "FENGYUN 1C DEB", "group": "fengyun-1c-debris", "lat": 50.29646456905126, "lon": 29.65933764904475, "alt_km": 816.5686623203055, "timestamp": "2025-12-25T07:41:10.001269+00:00", "meta": {"OBJECT_NAME": "FENGYUN 1C DEB", "OBJECT_ID": "1999-025ARK", "EPOCH": "2025-12-23T20:02:37.619232", "MEAN_MOTION": 14.13935341, "ECCENTRICITY": 0.003569, "INCLINATION": 98.7167, "RA_OF_ASC_NODE": 38.8589, "ARG_OF_PERICENTER": 72.0443, "MEAN_ANOMALY": 344.0933, "EPHEMERIS_TYPE": 0, "CLASSIFICATION_TYPE": "U", "NORAD_CAT_ID": 30701, "ELEMENT_SET_NO": 999, "REV_AT_EPOCH": 97276, "BSTAR": 1.8015e-05, "MEAN_MOTION_DOT": -8e-08, "MEAN_MOTION_DDOT": 0}, "tle": {"line1": "1 30701U 99025ARK 25357.83515763 -.00000008  00000+0  18015-4 0  9993", "line2": "2 30701  98.7167  38.8589 0035690  72.0443 344.0933 14.13935341972766"}}, "geometry": {"type": "Point", "coordinates": [29.65933764904475, 50.29646456905126]}}, {"type": "Feature", "properties": {"norad_id": 30702, "name": "FENGYUN 1C DEB", "group": "fengyun-1c-debris", "lat": -65.97837431680168, "lon": 178.44992554209816, "alt_km": 840.9447905863763, "timestamp": "2025-12-25T07:41:10.001280+00:00", "meta": {"OBJECT_NAME": "FENGYUN 1C DEB", "OBJECT_ID": "1999-025ARL", "EPOCH": "2025-12-24T12:25:42.576960", "MEAN_MOTION": 14.03625206, "ECCENTRICITY": 0.0069048, "INCLINATION": 98.769, "RA_OF_ASC_NODE": 17.9389, "ARG_OF_PERICENTER": 268.4699, "MEAN_ANOMALY": 246.9538, "EPHEMERIS_TYPE": 0, "CLASSIFICATION_TYPE": "U", "NORAD_CAT_ID": 30702, "ELEMENT_SET_NO": 999, "REV_AT_EPOCH": 96327, "BSTAR": 0.00096841934, "MEAN_MOTION_DOT": 1.51e-05, "MEAN_MOTION_DDOT": 0}, "tle": {"line1": "1 30702U 99025ARL 25358.51785390  .00001510  00000+0  96842-3 0  9996", "line2": "2 30702  98.7690  17.9389 0069048 268.4699 246.9538 14.03625206963274"}}, "geometry": {"type": "Point", "coordinates": [178.44992554209816, -65.97837431680168]}}]}